IRIDIUM 150             
1 43257U 18030J   24084.94952916  .00000173  00000+0  54544-4 0  9992
2 43257  86.3911 270.7338 0002403  88.1509 271.9962 14.34219139313450
IRIDIUM 143             
1 43258U 18030K   24084.93050212 -.00000040  00000+0 -21344-4 0  9997
2 43258  86.3915 270.8019 0002234  81.1101 279.0347 14.34217254313389
IRIDIUM 161             
1 43478U 18047C   24084.94754750  .00001054  00000+0  30739-3 0  9999
2 43478  86.4451  68.7559 0002284  89.7338 270.4124 14.43274038307691
IRIDIUM 152             
1 43479U 18047D   24084.90321855  .00000098  00000+0  27996-4 0  9991
2 43479  86.3924  68.6337 0002284  86.8037 273.3420 14.34218717305773
IRIDIUM 147             
1 43480U 18047E   24084.90956237 -.00000048  00000+0 -24121-4 0  9995
2 43480  86.3926  68.6222 0002057  93.3279 266.8153 14.34217176305777
IRIDIUM 110             
1 43481U 18047F   24084.91589790  .00000705  00000+0  24468-3 0  9994
2 43481  86.3928  68.6901 0002313  99.4712 260.6746 14.34223630305769
IRIDIUM 162             
1 43482U 18047G   24084.94137001  .00001042  00000+0  30381-3 0  9998
2 43482  86.4449  68.6597 0002203  90.8794 269.2659 14.43289178307683
IRIDIUM 160             
1 43569U 18061A   24084.93149144  .00001807  00000+0  63802-3 0  9993
2 43569  86.3996  37.0446 0001803  85.1131 275.0270 14.34232339296661
